TEVEL2-5                
1 63214U 25052E   26087.65687625  .00023032  00000+0  75643-3 0  9995
2 63214  97.3997 344.0161 0004195  59.1708 300.9946 15.31569852 57772
